#dP2023  8  5  0  0  0.00000000      96 __u+U ITR00 FIT  IAC
## 2273 518400.00000000   900.00000000 60161 0.0000000000000
+  119   C06C07C08C09C10C11C12C13C14C16C19C20C21C22C23C24C25
+        C26C27C28C29C30C32C33C34C35C36C37C38C39C40C41C42C43
+        C44C45C46E02E03E04E05E07E08E09E10E11E12E13E14E15E18
+        E19E21E24E25E26E27E30E31E33E34E36G01G02G03G04G05G06
+        G07G08G09G10G11G12G13G14G15G16G17G18G19G20G21G22G23
+        G24G25G26G27G28G29G30G31G32J02J03J04R01R02R03R04R05
+        R07R08R09R11R12R13R14R15R16R17R18R19R20R21R22R24R25
++         9  8  9  9  8  6  6  7  7  8  6  5  9  7  6  6  6
++         7  6  6  5  6  5  8  6  6  5  6  8  9  9  7  7  5
++         6  8  8  6  6  6  5  6  6  4  6  6  5  6  7  6  6
++         7  5  6  6  5  6  6  6  5  7  8  5  5  5  6  7  6
++         5  9  5  6  7  5  8  6  7  5  6  5  6  7  5  5  6
++         5  5  5  5  4  4  5  4  5  8  7  9  7  6  7  7  6
++         8  7  6  6  7  7  5  7  6  6  7  7  7  4  6  6  5
%c M  cc GPS ccc cccc cccc cccc cccc ccccc ccccc ccccc ccccc
%c cc cc ccc ccc cccc cccc cccc cccc ccccc ccccc ccccc ccccc
%f  0.0000000  0.000000000  0.00000000000  0.000000000000000
%f  0.0000000  0.000000000  0.00000000000  0.000000000000000
%i    0    0    0    0      0      0      0      0         0
%i    0    0    0    0      0      0      0      0         0
/* INFORMATION & ANALYSIS CENTER (IAC)      ULTRA-RAPID DATA
/* S/V CLOCKS ARE ALIGNED TO GNSS TIME                      
/* G:C1WC2W R:C1PC2P E:C1XC5X C:C2IC6I J:C1CC2S             
/* PCV:IGS20_2247 OL/AL:FES2004  NONE     YN ORB:CoN CLK:CoN
*  2023 08 05 15  0  0.00000000
PC06 -15132.105608  24161.039395  31009.369366    795.963245
PC07 -11893.789954  40567.646698    405.473783    116.448755
PC08   1467.672471  29035.723514 -30468.381020    401.728455
PC09  -4381.256235  24743.962200  34224.035256    329.394594
PC10  -7117.335526  41524.183575  -5010.160109   -136.178319
PC11 -21097.925177  14759.899962 -10732.982367    763.588324
PC12 -26589.127110   4341.525739   7345.389925    845.915444
PC13   7040.468975  32468.699970 -25649.884254    328.842241
PC14 -12055.838915  21900.638265 -12452.785398    176.528925
PC16 -17149.237674  23517.589457  30643.082909    -22.988641
PC19   6846.810486 -26775.435135   3787.247061   -953.670053
PC20  14888.390417 -15040.385037  18177.748432    383.921961
PC21 -14595.093343  -6800.804058 -22780.457623   -944.798375
PC22  -5581.355080 -23696.842534 -13622.620402   -364.603191
PC23  14023.429856  21533.490919  10891.878069   -916.094846
PC24 -19508.385001   2573.923271  19792.402716    251.230555
PC25  -2562.266224  17590.725347  21502.107331    183.062128
PC26 -24106.505074 -12118.820734   7181.061445   -158.923020
PC27  23834.604372   1871.742467 -14418.278259    180.054636
PC28   9766.785507  13156.437245 -22585.959836    134.528164
PC29  11731.561551 -18203.666497  17589.704809    156.872452
PC30  25368.474469 -11567.401216   1347.530515     -3.075181
PC32  14630.878808   6850.772597  22764.350087   -533.997803
PC33  -6735.784245  26815.104718  -3865.619816   -929.783025
PC34 -24866.497065  12355.299662  -2722.459320    230.537739
PC35  -9924.990813 -13037.157013  22573.780984    573.989956
PC36   3723.669133 -17102.137135 -21706.251484   -291.869313
PC37  23673.449128  13330.919168  -6303.829613   -802.639224
PC38  -6529.815978  25296.448285 -33027.400358     96.232387
PC39 -22961.503366  23206.098108  26590.491019     -4.155247
PC40 -18610.271933  37853.179708   3261.844761    -31.845008
PC41   5272.961717  24119.296765  13065.993261   -892.287763
PC42 -15215.353308  13696.711299 -18939.212938   -587.715523
PC43 -12570.997384  18214.918570 -17000.799092     33.938976
PC44 -23812.832991  -1183.990241  14467.283374    190.790159
PC45 -14485.076582 -21450.124484 -10452.304950    -10.415778
PC46  18560.392326  -3731.534550 -20484.921552    -74.265172
PE02  -8770.914529 -28265.426036   -813.735615     53.900367
PE03  -1383.907688 -20773.366430 -21038.931174    -43.005946
PE04  17313.250772   5182.318732  23448.431143   -182.636053
PE05  15532.279898 -24393.708611  -6303.517156      6.224129
PE07 -23308.193319  13451.711350 -12335.853759    -65.173985
PE08 -16966.780389  -5449.677627 -23637.066944   -125.610375
PE09  23233.120007 -13377.969903  12531.120314   -109.784139
PE10  29205.563944   4044.028046   2531.777381   -553.844261
PE11  26655.491402  -2953.877999  12516.677750   2656.614840
PE12  27036.221447   9916.426728  -6878.635851   -646.244140
PE13 -26976.020861   2496.106855 -11931.379722    -19.394902
PE14  10859.301025 -19463.532559   7692.750112    302.676232
PE15 -26883.144438 -10047.224456   7249.855500    -42.726125
PE18 -10299.473375  26893.121644 -15016.189375    378.699333
PE19  -1171.885669  21997.015397  19778.856361  -1917.357411
PE21  -4534.279446  23684.091637  17173.621684   -544.893881
PE24  16256.778993  -4422.440145 -24344.937452   -249.103740
PE25   4775.815492 -23455.558538 -17401.579248   -609.381764
PE26 -10549.492712  13830.603153 -23954.482878    183.967306
PE27 -15969.558743   5154.177893  24391.728685   -117.030875
PE30 -17754.261653 -16686.304811  16810.662568   -393.626539
PE31  17862.133891  16206.122328 -17148.777786     -1.982468
PE33  10353.090600  16592.797280 -22219.361453     -1.860092
PE34 -11118.879633 -16513.675445  21899.027298    -59.918000
PE36  11286.280548 -13398.603431  23854.691727    -96.564972
PG01  17726.480940  14119.667229 -14470.038378    169.787225
PG02  12273.364919  14397.765159 -18204.152837   -568.710728
PG03  12691.413306  21746.705301   8489.587957   -201.207749
PG04  10054.571024  11372.876484  21801.072477    116.617649
PG05  -4376.978765 -25269.525557   6511.305174   -137.640106
PG06  19398.640687  -6841.272480  16915.702023    570.166565
PG07  26073.569680   6306.746746    501.168472    104.439172
PG08    424.746658  19121.560357 -18333.611842   -135.710939
PG09  17181.617325   1933.399931  20094.328719    -94.334236
PG10 -13188.881526   6874.045012 -21805.323626    -48.047987
PG11   5225.665717 -14217.865068  21824.017553   -307.292728
PG12  -9325.285498 -24338.310871   5036.631062   -409.305685
PG13   9176.072556 -20315.218996 -14463.981429    556.330128
PG14  15140.749251  -3333.615561 -21548.416557    144.719229
PG15  -3758.989336 -18898.091253 -18652.794659     64.776736
PG16  -1812.224712  24200.740883   9935.047780   -472.100049
PG17  21639.647470 -12506.936617  -8706.219968    722.270500
PG18 -26131.701646  -4425.559761  -2827.982093   -371.754183
PG19  20667.171508 -16297.405188  -1970.669293    353.578437
PG20   1988.975194 -21256.389253  15951.613570    418.844782
PG21  10123.852608  14923.452985 -19255.011801    151.199421
PG22 -18476.346153  18889.721823   2074.925890    522.850300
PG23 -16486.371788  -6830.979662 -19722.351963     51.447427
PG24 -14205.858411 -14868.973137 -17397.246882   -280.466332
PG25 -16097.357762 -14551.576622  15178.321005    460.413532
PG26  -7988.113537  17110.797653  18425.325427    234.072466
PG27 -10519.557330  21990.510146 -10279.843041    -16.569468
PG28 -20727.717734   6813.620302  15124.779641     78.609727
PG29 -16336.217794  -3817.057884  20567.632145   -607.161633
PG30  24997.054536  -1118.031649  -9171.329195   -498.849610
PG31 -11576.980492  12103.818325  20524.004848   -221.322396
PG32 -20237.600981  15762.957002  -6291.982864   -535.000842
PJ02 -27092.953906  23795.032297  26981.777069     -2.174144
PJ03 -33428.627319  17648.496427 -14124.643180     -0.693337
PJ04 -18764.185024  34547.797178 -10393.659371     98.360388
PR01  -5963.448375  24487.002669   3979.954347     62.871570
PR02   3697.260611  16245.516239  19330.997886    -22.555831
PR03  11704.909013  -1024.756086  22690.340762     82.714330
PR04  12994.581335 -17254.754487  13604.655644    197.486011
PR05   7456.016396 -24235.896356  -2884.520500    116.852550
PR07 -11873.946874   1818.374414 -22458.496190     61.754711
PR08 -12877.562358  17477.170117 -13311.362922    -71.981764
PR09 -16243.714764 -19497.986652  -2080.351110    135.068137
PR11 -10967.958542   3866.742318  22715.581532   -123.785793
PR12   4052.821765  17782.502321  17859.197535     29.862031
PR13  15126.034113  20113.250499   4162.466295    -37.837850
PR14  18347.361233  10316.592669 -14406.810311     25.055134
PR15  10208.765334  -4981.720052 -22813.750727     87.260456
PR16  -4032.989025 -17519.849697 -18062.523643     17.400971
PR17  24223.527752   -696.066151  -7882.172508      6.169950
PR18  22647.421102  -7839.592708   8806.198298     95.247673
PR19  11154.223137 -10663.773008  20302.342411   -242.413083
PR20 -11307.311768  -8042.210796  21399.297486    -97.794965
PR21 -24587.469936   1132.585310   6758.063814    -28.081365
PR22 -22363.161968   7600.513567  -9600.251165    107.924688
PR24  12277.221368   7827.221799 -20925.392963    -19.316024
PR25 -24265.163647   -517.585663   7892.875223     44.086867
EOF
